25676,GLOBALSTAR M045,1999,117.36,-1.0,-,52.0,Inactive,0,LEO,Kazakhstan,Globalstar,Unknown,Unknown,Soyuz,1 25676U 99019A   23365.48811287 -.00000041  00000+0  46385-3 0  9996,2 25676  51.9990  26.3783 0000624 230.6953 277.5331 12.27023450127879,12.2702345,6.24e-05,LEO
25677,GLOBALSTAR M019,1999,118.63,-1.0,-,51.99,Inactive,0,LEO,Kazakhstan,Globalstar,Unknown,Unknown,Soyuz,1 25677U 99019B   24001.50772531 -.00000219  00000+0 -13427-2 0  9994,2 25677  51.9875 116.3640 0000246  61.1155  19.8926 12.13849318120644,12.13849318,2.46e-05,LEO
25678,GLOBALSTAR M044,1999,120.99,-1.0,-,52.0,Inactive,0,LEO,Kazakhstan,Globalstar,Unknown,Unknown,Soyuz,1 25678U 99019C   24001.44321728 -.00000078  00000+0  83724-4 0  9997,2 25678  51.9993   1.2579 0006558  92.3442  74.5393 11.90226482107866,11.90226482,0.0006558,LEO
25679,GLOBALSTAR M042,1999,117.83,-1.0,-,52.0,Inactive,0,LEO,Kazakhstan,Globalstar,Unknown,Unknown,Soyuz,1 25679U 99019D   23365.63626247 -.00000058  00000+0  31706-3 0  9995,2 25679  52.0008 117.1409 0002165 271.9474 191.6281 12.22053750120027,12.2205375,0.0002165,LEO
25770,GLOBALSTAR M025,1999,128.28,-1.0,-,51.98,Inactive,0,MEO,USA,Globalstar,Unknown,Unknown,Delta,1 25770U 99031A   24001.30095705 -.00000053  00000+0  44735-3 0  9993,2 25770  51.9841 313.7331 0001599 354.0675 154.5163 11.22548341 79525,11.22548341,0.0001599,MEO
25771,GLOBALSTAR M049,1999,129.48,-1.0,-,51.99,Inactive,0,MEO,USA,Globalstar,Unknown,Unknown,Delta,1 25771U 99031B   23365.89789848 -.00000096  00000+0 -10516-2 0  9995,2 25771  51.9900 322.6286 0002593 195.2515 164.8204 11.12100873 58095,11.12100873,0.0002593,MEO
25772,GLOBALSTAR M047,1999,127.22,-1.0,-,51.99,Inactive,0,LEO,USA,Globalstar,Unknown,Unknown,Delta,1 25772U 99031C   24001.29882594 -.00000074  00000+0 -11725-3 0  9990,2 25772  51.9862   9.5988 0016378  68.0434 292.2111 11.31917542 85538,11.31917542,0.0016378,LEO
25773,GLOBALSTAR M052,1999,129.14,-1.0,-,51.99,Inactive,0,MEO,USA,Globalstar,Unknown,Unknown,Delta,1 25773U 99031D   23365.68958767 -.00000015  00000+0  16933-2 0  9991,2 25773  51.9880  79.2740 0002067  26.1081 144.8810 11.15047154418995,11.15047154,0.0002067,MEO
